{
  "type": "FeatureCollection",
  "features": [
    {
      "type": "Feature",
      "properties": {
        "route": "BLUE",
        "name": "ブルールート"
      },
      "geometry": {
        "type": "LineString",
        "coordinates": [
          [
            140.040469,
            35.64124
          ],
          [
            140.040479,
            35.641219
          ],
          [
            140.040853,
            35.640384
          ],
          [
            140.041071,
            35.639907
          ],
          [
            140.041104,
            35.639833
          ],
          [
            140.041291,
            35.639409
          ],
          [
            140.041388,
            35.639175
          ],
          [
            140.041418,
            35.639101
          ],
          [
            140.041421,
            35.639094
          ],
          [
            140.041568,
            35.639138
          ],
          [
            140.042819,
            35.639511
          ],
          [
            140.04292,
            35.639541
          ],
          [
            140.043054,
            35.639581
          ],
          [
            140.043881,
            35.639829
          ],
          [
            140.044002,
            35.639865
          ],
          [
            140.044118,
            35.639899
          ],
          [
            140.04484,
            35.640113
          ],
          [
            140.044965,
            35.64015
          ],
          [
            140.045076,
            35.640182
          ],
          [
            140.045905,
            35.640422
          ],
          [
            140.045996,
            35.640449
          ],
          [
            140.045987,
            35.640469
          ],
          [
            140.045668,
            35.641186
          ],
          [
            140.045351,
            35.641921
          ],
          [
            140.045315,
            35.641999
          ],
          [
            140.045059,
            35.642569
          ],
          [
            140.045042,
            35.642607
          ],
          [
            140.045016,
            35.642664
          ],
          [
            140.04492,
            35.642635
          ],
          [
            140.04409,
            35.642385
          ],
          [
            140.043982,
            35.642353
          ],
          [
            140.043868,
            35.642318
          ],
          [
            140.042188,
            35.641812
          ],
          [
            140.042071,
            35.641777
          ],
          [
            140.041932,
            35.641737
          ],
          [
            140.041829,
            35.641706
          ],
          [
            140.040573,
            35.641331
          ],
          [
            140.040445,
            35.641292
          ],
          [
            140.040469,
            35.64124
          ]
        ]
      }
    }
  ]
}