{
  "type": "FeatureCollection",
  "features": [
    {
      "type": "Feature",
      "properties": {
        "route": "ORANGE",
        "name": "オレンジルート"
      },
      "geometry": {
        "type": "LineString",
        "coordinates": [
          [
            140.046043,
            35.640463
          ],
          [
            140.047011,
            35.640755
          ],
          [
            140.047131,
            35.640791
          ],
          [
            140.04793,
            35.641025
          ],
          [
            140.048029,
            35.641055
          ],
          [
            140.048113,
            35.641082
          ],
          [
            140.048933,
            35.641327
          ],
          [
            140.049032,
            35.641357
          ],
          [
            140.049142,
            35.641386
          ],
          [
            140.049221,
            35.641407
          ],
          [
            140.049354,
            35.641458
          ],
          [
            140.049471,
            35.641515
          ],
          [
            140.049555,
            35.641565
          ],
          [
            140.049652,
            35.64163
          ],
          [
            140.049737,
            35.641709
          ],
          [
            140.050711,
            35.642816
          ],
          [
            140.050791,
            35.642907
          ],
          [
            140.051019,
            35.643153
          ],
          [
            140.051084,
            35.643221
          ],
          [
            140.052154,
            35.644335
          ],
          [
            140.052161,
            35.644343
          ],
          [
            140.052182,
            35.644366
          ],
          [
            140.051777,
            35.644651
          ],
          [
            140.05142,
            35.644906
          ],
          [
            140.051042,
            35.64518
          ],
          [
            140.050805,
            35.645355
          ],
          [
            140.050735,
            35.645415
          ],
          [
            140.050641,
            35.645502
          ],
          [
            140.050548,
            35.645596
          ],
          [
            140.050444,
            35.645699
          ],
          [
            140.05037,
            35.645797
          ],
          [
            140.050273,
            35.645947
          ],
          [
            140.050148,
            35.64614
          ],
          [
            140.050148,
            35.646193
          ],
          [
            140.050159,
            35.646225
          ],
          [
            140.050185,
            35.646248
          ],
          [
            140.050218,
            35.646277
          ],
          [
            140.0503,
            35.646307
          ],
          [
            140.05049,
            35.646246
          ],
          [
            140.050695,
            35.646188
          ],
          [
            140.050824,
            35.646144
          ],
          [
            140.050949,
            35.646098
          ],
          [
            140.051049,
            35.646056
          ],
          [
            140.051322,
            35.645902
          ],
          [
            140.051491,
            35.645784
          ],
          [
            140.051598,
            35.645714
          ],
          [
            140.051658,
            35.645674
          ],
          [
            140.052056,
            35.645392
          ],
          [
            140.052365,
            35.645176
          ],
          [
            140.052409,
            35.645141
          ],
          [
            140.052473,
            35.645094
          ],
          [
            140.052523,
            35.645055
          ],
          [
            140.052577,
            35.645012
          ],
          [
            140.052694,
            35.644935
          ],
          [
            140.052774,
            35.644863
          ],
          [
            140.053007,
            35.644624
          ],
          [
            140.053232,
            35.644336
          ],
          [
            140.05327,
            35.644281
          ],
          [
            140.053304,
            35.64423
          ],
          [
            140.053354,
            35.644128
          ],
          [
            140.053354,
            35.644063
          ],
          [
            140.05333,
            35.644035
          ],
          [
            140.053311,
            35.644013
          ],
          [
            140.053265,
            35.643993
          ],
          [
            140.053194,
            35.643975
          ],
          [
            140.052998,
            35.644026
          ],
          [
            140.052771,
            35.644098
          ],
          [
            140.052516,
            35.644201
          ],
          [
            140.052182,
            35.644366
          ],
          [
            140.051777,
            35.644651
          ],
          [
            140.05142,
            35.644906
          ],
          [
            140.051042,
            35.64518
          ],
          [
            140.050805,
            35.645355
          ],
          [
            140.050735,
            35.645415
          ],
          [
            140.050641,
            35.645502
          ],
          [
            140.050548,
            35.645596
          ],
          [
            140.050444,
            35.645699
          ],
          [
            140.05037,
            35.645797
          ],
          [
            140.050273,
            35.645947
          ],
          [
            140.050148,
            35.64614
          ],
          [
            140.050148,
            35.646193
          ],
          [
            140.050159,
            35.646225
          ],
          [
            140.050168,
            35.646233
          ],
          [
            140.050185,
            35.646248
          ],
          [
            140.050218,
            35.646277
          ],
          [
            140.0503,
            35.646307
          ],
          [
            140.05049,
            35.646246
          ],
          [
            140.050695,
            35.646188
          ],
          [
            140.050824,
            35.646144
          ],
          [
            140.050949,
            35.646098
          ],
          [
            140.051049,
            35.646056
          ],
          [
            140.051322,
            35.645902
          ],
          [
            140.051491,
            35.645784
          ],
          [
            140.051598,
            35.645714
          ],
          [
            140.051658,
            35.645674
          ],
          [
            140.052056,
            35.645392
          ],
          [
            140.052365,
            35.645176
          ],
          [
            140.052409,
            35.645141
          ],
          [
            140.052473,
            35.645094
          ],
          [
            140.052523,
            35.645055
          ],
          [
            140.052577,
            35.645012
          ],
          [
            140.052694,
            35.644935
          ],
          [
            140.052774,
            35.644863
          ],
          [
            140.053007,
            35.644624
          ],
          [
            140.053232,
            35.644336
          ],
          [
            140.05327,
            35.644281
          ],
          [
            140.053304,
            35.64423
          ],
          [
            140.053354,
            35.644128
          ],
          [
            140.053354,
            35.644063
          ],
          [
            140.053311,
            35.644013
          ],
          [
            140.053265,
            35.643993
          ],
          [
            140.053194,
            35.643975
          ],
          [
            140.052998,
            35.644026
          ],
          [
            140.052771,
            35.644098
          ],
          [
            140.052516,
            35.644201
          ],
          [
            140.052182,
            35.644366
          ],
          [
            140.052154,
            35.644335
          ],
          [
            140.051796,
            35.643962
          ],
          [
            140.051084,
            35.643221
          ],
          [
            140.051019,
            35.643153
          ],
          [
            140.050791,
            35.642907
          ],
          [
            140.050711,
            35.642816
          ],
          [
            140.049737,
            35.641709
          ],
          [
            140.049652,
            35.64163
          ],
          [
            140.049555,
            35.641565
          ],
          [
            140.049471,
            35.641515
          ],
          [
            140.049354,
            35.641458
          ],
          [
            140.049221,
            35.641407
          ],
          [
            140.049142,
            35.641386
          ],
          [
            140.049032,
            35.641357
          ],
          [
            140.049008,
            35.64141
          ],
          [
            140.048994,
            35.641441
          ],
          [
            140.048735,
            35.642024
          ],
          [
            140.048702,
            35.642097
          ],
          [
            140.048672,
            35.642166
          ],
          [
            140.048616,
            35.642293
          ],
          [
            140.048214,
            35.643194
          ],
          [
            140.048178,
            35.643267
          ],
          [
            140.048115,
            35.643354
          ],
          [
            140.048054,
            35.643422
          ],
          [
            140.047975,
            35.643494
          ],
          [
            140.047873,
            35.643576
          ],
          [
            140.047415,
            35.643841
          ],
          [
            140.047408,
            35.643845
          ],
          [
            140.047309,
            35.643902
          ],
          [
            140.047239,
            35.643819
          ],
          [
            140.046846,
            35.643356
          ],
          [
            140.046743,
            35.643244
          ],
          [
            140.04663,
            35.643165
          ],
          [
            140.046488,
            35.643097
          ],
          [
            140.046145,
            35.642994
          ],
          [
            140.046037,
            35.642961
          ],
          [
            140.045924,
            35.642928
          ],
          [
            140.045103,
            35.64269
          ],
          [
            140.045016,
            35.642664
          ],
          [
            140.045056,
            35.642575
          ],
          [
            140.045059,
            35.642569
          ],
          [
            140.045315,
            35.641999
          ],
          [
            140.045351,
            35.641921
          ],
          [
            140.045668,
            35.641186
          ],
          [
            140.045996,
            35.640449
          ],
          [
            140.046043,
            35.640463
          ]
        ]
      }
    }
  ]
}